[{"OBJECT_NAME":"ONEWEB-0514","OBJECT_ID":"2022-138V","EPOCH":"2026-03-09T16:49:13.211904","MEAN_MOTION":13.19725308,"ECCENTRICITY":0.00016696,"INCLINATION":87.923,"RA_OF_ASC_NODE":324.7865,"ARG_OF_PERICENTER":76.01,"MEAN_ANOMALY":284.1218,"EPHEMERIS_TYPE":0,"CLASSIFICATION_TYPE":"U","NORAD_CAT_ID":54132,"ELEMENT_SET_NO":999,"REV_AT_EPOCH":16370,"BSTAR":-0.00056875292,"MEAN_MOTION_DOT":-2.15e-6,"MEAN_MOTION_DDOT":0},{"OBJECT_NAME":"FENGYUN 1C DEB","OBJECT_ID":"1999-025AUQ","EPOCH":"2026-03-09T00:10:41.404224","MEAN_MOTION":13.70585074,"ECCENTRICITY":0.02666258,"INCLINATION":99.0288,"RA_OF_ASC_NODE":94.4304,"ARG_OF_PERICENTER":262.8534,"MEAN_ANOMALY":124.0623,"EPHEMERIS_TYPE":0,"CLASSIFICATION_TYPE":"U","NORAD_CAT_ID":30806,"ELEMENT_SET_NO":999,"REV_AT_EPOCH":94877,"BSTAR":0.00094592753,"MEAN_MOTION_DOT":1.036e-5,"MEAN_MOTION_DDOT":0}]
